[{"OBJECT_NAME":"STARLINK-6283","OBJECT_ID":"2023-061AJ","EPOCH":"2026-03-09T09:58:56.047008","MEAN_MOTION":15.02521645,"ECCENTRICITY":0.00010296,"INCLINATION":43.0028,"RA_OF_ASC_NODE":185.9368,"ARG_OF_PERICENTER":250.257,"MEAN_ANOMALY":109.8161,"EPHEMERIS_TYPE":0,"CLASSIFICATION_TYPE":"U","NORAD_CAT_ID":56406,"ELEMENT_SET_NO":999,"REV_AT_EPOCH":15686,"BSTAR":2.9084906e-5,"MEAN_MOTION_DOT":1.89e-6,"MEAN_MOTION_DDOT":0},{"OBJECT_NAME":"PSLV DEB","OBJECT_ID":"2001-049NA","EPOCH":"2026-03-08T15:04:56.759808","MEAN_MOTION":15.08740413,"ECCENTRICITY":0.00254054,"INCLINATION":98.314,"RA_OF_ASC_NODE":131.3874,"ARG_OF_PERICENTER":357.4644,"MEAN_ANOMALY":2.6449,"EPHEMERIS_TYPE":0,"CLASSIFICATION_TYPE":"U","NORAD_CAT_ID":27582,"ELEMENT_SET_NO":999,"REV_AT_EPOCH":27774,"BSTAR":0.00086862236,"MEAN_MOTION_DOT":0.0001368,"MEAN_MOTION_DDOT":0}]
